CCSDS_OMM_VERS = 2.0
CREATION_DATE  = 
ORIGINATOR     = 

OBJECT_NAME    = SL-3 R/B
OBJECT_ID      = 1982-039B
CENTER_NAME    = EARTH
REF_FRAME      = TEME
TIME_SYSTEM    = UTC
MEAN_ELEMENT_THEORY = SGP/SGP4

EPOCH          = 2025-11-07T05:44:04.629408
MEAN_MOTION    = 15.09232003
ECCENTRICITY   = .00325356
INCLINATION    = 81.1810
RA_OF_ASC_NODE = 356.9141
ARG_OF_PERICENTER = 8.1065
MEAN_ANOMALY   = 352.0678

EPHEMERIS_TYPE = 0
CLASSIFICATION_TYPE = U
NORAD_CAT_ID   = 13154
ELEMENT_SET_NO = 999
REV_AT_EPOCH   = 36316
BSTAR          = .2414694E-3
MEAN_MOTION_DOT = .3911E-4
MEAN_MOTION_DDOT = 0

CCSDS_OMM_VERS = 2.0
CREATION_DATE  = 
ORIGINATOR     = 

OBJECT_NAME    = SL-3 R/B
OBJECT_ID      = 1982-079B
CENTER_NAME    = EARTH
REF_FRAME      = TEME
TIME_SYSTEM    = UTC
MEAN_ELEMENT_THEORY = SGP/SGP4

EPOCH          = 2025-11-07T05:02:02.076000
MEAN_MOTION    = 15.23028744
ECCENTRICITY   = .00249753
INCLINATION    = 81.1468
RA_OF_ASC_NODE = 337.5304
ARG_OF_PERICENTER = 217.3026
MEAN_ANOMALY   = 142.6473

EPHEMERIS_TYPE = 0
CLASSIFICATION_TYPE = U
NORAD_CAT_ID   = 13403
ELEMENT_SET_NO = 999
REV_AT_EPOCH   = 35904
BSTAR          = .31562194E-3
MEAN_MOTION_DOT = .7517E-4
MEAN_MOTION_DDOT = 0

CCSDS_OMM_VERS = 2.0
CREATION_DATE  = 
ORIGINATOR     = 

OBJECT_NAME    = SL-14 R/B
OBJECT_ID      = 1982-092B
CENTER_NAME    = EARTH
REF_FRAME      = TEME
TIME_SYSTEM    = UTC
MEAN_ELEMENT_THEORY = SGP/SGP4

EPOCH          = 2025-11-07T06:48:45.216288
MEAN_MOTION    = 14.86492484
ECCENTRICITY   = .00202128
INCLINATION    = 82.5672
RA_OF_ASC_NODE = 255.8684
ARG_OF_PERICENTER = 352.1257
MEAN_ANOMALY   = 121.1736

EPHEMERIS_TYPE = 0
CLASSIFICATION_TYPE = U
NORAD_CAT_ID   = 13553
ELEMENT_SET_NO = 999
REV_AT_EPOCH   = 31074
BSTAR          = .10908432E-3
MEAN_MOTION_DOT = .992E-5
MEAN_MOTION_DDOT = 0

CCSDS_OMM_VERS = 2.0
CREATION_DATE  = 
ORIGINATOR     = 

OBJECT_NAME    = SL-3 R/B
OBJECT_ID      = 1983-010B
CENTER_NAME    = EARTH
REF_FRAME      = TEME
TIME_SYSTEM    = UTC
MEAN_ELEMENT_THEORY = SGP/SGP4

EPOCH          = 2025-11-07T00:51:04.617504
MEAN_MOTION    = 15.42151506
ECCENTRICITY   = .00183658
INCLINATION    = 81.1022
RA_OF_ASC_NODE = 152.1578
ARG_OF_PERICENTER = 112.0583
MEAN_ANOMALY   = 248.2612

EPHEMERIS_TYPE = 0
CLASSIFICATION_TYPE = U
NORAD_CAT_ID   = 13819
ELEMENT_SET_NO = 999
REV_AT_EPOCH   = 33901
BSTAR          = .34486609E-3
MEAN_MOTION_DOT = .149E-3
MEAN_MOTION_DDOT = 0

CCSDS_OMM_VERS = 2.0
CREATION_DATE  = 
ORIGINATOR     = 

OBJECT_NAME    = SL-3 R/B
OBJECT_ID      = 1983-075B
CENTER_NAME    = EARTH
REF_FRAME      = TEME
TIME_SYSTEM    = UTC
MEAN_ELEMENT_THEORY = SGP/SGP4

EPOCH          = 2025-11-07T06:34:33.911904
MEAN_MOTION    = 15.35088929
ECCENTRICITY   = .00216895
INCLINATION    = 97.6098
RA_OF_ASC_NODE = 306.5943
ARG_OF_PERICENTER = 310.8284
MEAN_ANOMALY   = 49.1078

EPHEMERIS_TYPE = 0
CLASSIFICATION_TYPE = U
NORAD_CAT_ID   = 14208
ELEMENT_SET_NO = 999
REV_AT_EPOCH   = 31135
BSTAR          = .44506807E-3
MEAN_MOTION_DOT = .15197E-3
MEAN_MOTION_DDOT = 0

CCSDS_OMM_VERS = 2.0
CREATION_DATE  = 
ORIGINATOR     = 

OBJECT_NAME    = COSMOS 1536
OBJECT_ID      = 1984-013A
CENTER_NAME    = EARTH
REF_FRAME      = TEME
TIME_SYSTEM    = UTC
MEAN_ELEMENT_THEORY = SGP/SGP4

EPOCH          = 2025-11-07T05:50:48.537312
MEAN_MOTION    = 15.21882578
ECCENTRICITY   = .00153118
INCLINATION    = 82.5477
RA_OF_ASC_NODE = 229.3448
ARG_OF_PERICENTER = 1.3183
MEAN_ANOMALY   = 358.8090

EPHEMERIS_TYPE = 0
CLASSIFICATION_TYPE = U
NORAD_CAT_ID   = 14699
ELEMENT_SET_NO = 999
REV_AT_EPOCH   = 25398
BSTAR          = .52554736E-3
MEAN_MOTION_DOT = .1203E-3
MEAN_MOTION_DDOT = 0

CCSDS_OMM_VERS = 2.0
CREATION_DATE  = 
ORIGINATOR     = 

OBJECT_NAME    = SL-14 R/B
OBJECT_ID      = 1984-027B
CENTER_NAME    = EARTH
REF_FRAME      = TEME
TIME_SYSTEM    = UTC
MEAN_ELEMENT_THEORY = SGP/SGP4

EPOCH          = 2025-11-07T04:48:25.704000
MEAN_MOTION    = 14.85819277
ECCENTRICITY   = .00185725
INCLINATION    = 82.5434
RA_OF_ASC_NODE = 359.8842
ARG_OF_PERICENTER = 23.9131
MEAN_ANOMALY   = 336.2944

EPHEMERIS_TYPE = 0
CLASSIFICATION_TYPE = U
NORAD_CAT_ID   = 14820
ELEMENT_SET_NO = 999
REV_AT_EPOCH   = 22944
BSTAR          = .80323298E-4
MEAN_MOTION_DOT = .725E-5
MEAN_MOTION_DDOT = 0

CCSDS_OMM_VERS = 2.0
CREATION_DATE  = 
ORIGINATOR     = 

OBJECT_NAME    = SL-8 R/B
OBJECT_ID      = 1985-006B
CENTER_NAME    = EARTH
REF_FRAME      = TEME
TIME_SYSTEM    = UTC
MEAN_ELEMENT_THEORY = SGP/SGP4

EPOCH          = 2025-11-06T22:23:44.972160
MEAN_MOTION    = 14.37687229
ECCENTRICITY   = .00175
INCLINATION    = 74.0430
RA_OF_ASC_NODE = 127.0110
ARG_OF_PERICENTER = 71.1077
MEAN_ANOMALY   = 79.1700

EPHEMERIS_TYPE = 0
CLASSIFICATION_TYPE = U
NORAD_CAT_ID   = 15483
ELEMENT_SET_NO = 999
REV_AT_EPOCH   = 13638
BSTAR          = .10421E-3
MEAN_MOTION_DOT = .288E-5
MEAN_MOTION_DDOT = 0

CCSDS_OMM_VERS = 2.0
CREATION_DATE  = 
ORIGINATOR     = 

OBJECT_NAME    = SL-12 R/B(2)
OBJECT_ID      = 1985-042D
CENTER_NAME    = EARTH
REF_FRAME      = TEME
TIME_SYSTEM    = UTC
MEAN_ELEMENT_THEORY = SGP/SGP4

EPOCH          = 2025-11-07T07:03:04.559328
MEAN_MOTION    = 14.21934651
ECCENTRICITY   = .00370522
INCLINATION    = 71.1091
RA_OF_ASC_NODE = 346.3055
ARG_OF_PERICENTER = 313.5047
MEAN_ANOMALY   = 123.4947

EPHEMERIS_TYPE = 0
CLASSIFICATION_TYPE = U
NORAD_CAT_ID   = 15772
ELEMENT_SET_NO = 999
REV_AT_EPOCH   = 9699
BSTAR          = .12689024E-3
MEAN_MOTION_DOT = .234E-5
MEAN_MOTION_DDOT = 0

CCSDS_OMM_VERS = 2.0
CREATION_DATE  = 
ORIGINATOR     = 

OBJECT_NAME    = SL-14 R/B
OBJECT_ID      = 1985-069B
CENTER_NAME    = EARTH
REF_FRAME      = TEME
TIME_SYSTEM    = UTC
MEAN_ELEMENT_THEORY = SGP/SGP4

EPOCH          = 2025-11-07T00:28:58.178784
MEAN_MOTION    = 14.86259392
ECCENTRICITY   = .00175358
INCLINATION    = 82.5248
RA_OF_ASC_NODE = 140.2852
ARG_OF_PERICENTER = 236.3886
MEAN_ANOMALY   = 123.5658

EPHEMERIS_TYPE = 0
CLASSIFICATION_TYPE = U
NORAD_CAT_ID   = 15945
ELEMENT_SET_NO = 999
REV_AT_EPOCH   = 15461
BSTAR          = .70755284E-4
MEAN_MOTION_DOT = .648E-5
MEAN_MOTION_DDOT = 0

CCSDS_OMM_VERS = 2.0
CREATION_DATE  = 
ORIGINATOR     = 

OBJECT_NAME    = SL-16 R/B
OBJECT_ID      = 1985-097B
CENTER_NAME    = EARTH
REF_FRAME      = TEME
TIME_SYSTEM    = UTC
MEAN_ELEMENT_THEORY = SGP/SGP4

EPOCH          = 2025-11-07T06:16:28.238880
MEAN_MOTION    = 14.16576473
ECCENTRICITY   = .00050887
INCLINATION    = 71.0047
RA_OF_ASC_NODE = 38.2932
ARG_OF_PERICENTER = 78.8857
MEAN_ANOMALY   = 345.2944

EPHEMERIS_TYPE = 0
CLASSIFICATION_TYPE = U
NORAD_CAT_ID   = 16182
ELEMENT_SET_NO = 999
REV_AT_EPOCH   = 6989
BSTAR          = -.59752504E-4
MEAN_MOTION_DOT = -.167E-5
MEAN_MOTION_DDOT = 0

CCSDS_OMM_VERS = 2.0
CREATION_DATE  = 
ORIGINATOR     = 

OBJECT_NAME    = SL-14 R/B
OBJECT_ID      = 1986-006B
CENTER_NAME    = EARTH
REF_FRAME      = TEME
TIME_SYSTEM    = UTC
MEAN_ELEMENT_THEORY = SGP/SGP4

EPOCH          = 2025-11-07T05:29:24.104544
MEAN_MOTION    = 14.86597541
ECCENTRICITY   = .00757776
INCLINATION    = 82.5297
RA_OF_ASC_NODE = 14.9607
ARG_OF_PERICENTER = 319.5391
MEAN_ANOMALY   = 40.0204

EPHEMERIS_TYPE = 0
CLASSIFICATION_TYPE = U
NORAD_CAT_ID   = 16496
ELEMENT_SET_NO = 999
REV_AT_EPOCH   = 13101
BSTAR          = .10239746E-3
MEAN_MOTION_DOT = .982E-5
MEAN_MOTION_DDOT = 0

