SL-3 R/B                
1 13154U 82039B   25311.23894247  .00003911  00000+0  24147-3 0  9991
2 13154  81.1810 356.9141 0032535   8.1065 352.0678 15.09232003363167
SL-3 R/B                
1 13403U 82079B   25311.20974625  .00007517  00000+0  31562-3 0  9993
2 13403  81.1468 337.5304 0024975 217.3026 142.6473 15.23028744359048
SL-14 R/B               
1 13553U 82092B   25311.28385667  .00000992  00000+0  10908-3 0  9995
2 13553  82.5672 255.8684 0020212 352.1257 121.1736 14.86492484310745
SL-3 R/B                
1 13819U 83010B   25311.03547011  .00014900  00000+0  34487-3 0  9999
2 13819  81.1022 152.1578 0018365 112.0583 248.2612 15.42151506339011
SL-3 R/B                
1 14208U 83075B   25311.27400361  .00015197  00000+0  44507-3 0  9998
2 14208  97.6098 306.5943 0021689 310.8284  49.1078 15.35088929311350
COSMOS 1536             
1 14699U 84013A   25311.24361733  .00012030  00000+0  52555-3 0  9996
2 14699  82.5477 229.3448 0015311   1.3183 358.8090 15.21882578253980
SL-14 R/B               
1 14820U 84027B   25311.20029750  .00000725  00000+0  80323-4 0  9996
2 14820  82.5434 359.8842 0018572  23.9131 336.2944 14.85819277229448
SL-8 R/B                
1 15483U 85006B   25310.93315940  .00000288  00000+0  10421-3 0  9993
2 15483  74.0430 127.0110 0017500  71.1077  79.1700 14.37687229136383
SL-12 R/B(2)            
1 15772U 85042D   25311.29380277  .00000234  00000+0  12689-3 0  9998
2 15772  71.1091 346.3055 0037052 313.5047 123.4947 14.21934651 96998
SL-14 R/B               
1 15945U 85069B   25311.02011781  .00000648  00000+0  70755-4 0  9999
2 15945  82.5248 140.2852 0017535 236.3886 123.5658 14.86259392154610
SL-16 R/B               
1 16182U 85097B   25311.26143795 -.00000167  00000+0 -59753-4 0  9994
2 16182  71.0047  38.2932 0005088  78.8857 345.2944 14.16576473 69897
SL-14 R/B               
1 16496U 86006B   25311.22875121  .00000982  00000+0  10240-3 0  9994
2 16496  82.5297  14.9607 0075777 319.5391  40.0204 14.86597541131018
